GSAT0101 (PRN E11)      
1 37846U 11060A   22137.74914868 -.00000083  00000+0  00000+0 0  9998
2 37846  56.9851  22.1702 0004125  26.7448 333.3263  1.70474922 65696
GSAT0102 (PRN E12)      
1 37847U 11060B   22138.60458179 -.00000087  00000+0  00000+0 0  9997
2 37847  56.9862  22.1467 0004229 357.5671 214.1205  1.70475240 65714
GSAT0103 (PRN E19)      
1 38857U 12055A   22137.78887411  .00000075  00000+0  00000+0 0  9993
2 38857  55.1288 142.5409 0005556 269.3070  90.6441  1.70473630 59587
GSAT0104 (PRN E20)      
1 38858U 12055B   22137.17247304  .00000080  00000+0  00000+0 0  9994
2 38858  55.1291 142.5595 0003118 269.6714  90.3127  1.70473910 59688
GSAT0201 (PRN E18)      
1 40128U 14050A   22138.02546128 -.00000080  00000+0  00000+0 0  9996
2 40128  50.3031 333.4933 1629232 122.9206 253.8428  1.85518696 50651
GSAT0202 (PRN E14)      
1 40129U 14050B   22137.74756760 -.00000079  00000+0  00000+0 0  9998
2 40129  50.3290 332.5640 1626286 123.7181 252.8863  1.85519258 52818
GSAT0203 (PRN E26)      
1 40544U 15017A   22136.94335650 -.00000081  00000+0  00000+0 0  9998
2 40544  56.7800  22.2297 0001473 288.2854  71.7483  1.70475908 43762
GSAT0204 (PRN E22)      
1 40545U 15017B   22137.78264488 -.00000084  00000+0  00000+0 0  9995
2 40545  56.7859  22.2190 0000894 262.0531  97.9862  1.70475348  6822
GSAT0205 (PRN E24)      
1 40889U 15045A   22136.37648566 -.00000016  00000+0  00000+0 0  9999
2 40889  55.6449 262.8485 0004306  25.5776 334.4186  1.70473751 41564
GSAT0206 (PRN E30)      
1 40890U 15045B   22138.35703658 -.00000014  00000+0  00000+0 0  9993
2 40890  55.6428 262.7900 0002420  17.9740 342.0212  1.70473765 41622
GSAT0209 (PRN E09)      
1 41174U 15079A   22137.94503320  .00000073  00000+0  00000+0 0  9998
2 41174  55.1450 142.2400 0005570 302.2811  57.6778  1.70474486 39931
GSAT0208 (PRN E08)      
1 41175U 15079B   22138.16447860  .00000072  00000+0  00000+0 0  9999
2 41175  55.1439 142.2327 0004867 301.0700  58.8935  1.70474477 39779
GSAT0211 (PRN E02)      
1 41549U 16030A   22137.69745451 -.00000014  00000+0  00000+0 0  9993
2 41549  55.7886 262.7379 0002911 336.9533  23.0165  1.70475295 37248
GSAT0210 (PRN E01)      
1 41550U 16030B   22131.53770277 -.00000014  00000+0  00000+0 0  9996
2 41550  55.7928 262.9085 0001925 295.1711  64.7799  1.70475522 37137
GSAT0207 (PRN E07)      
1 41859U 16069A   22138.23788978  .00000071  00000+0  00000+0 0  9993
2 41859  54.8071 142.4206 0005815 291.6901  68.2592  1.70473150 33983
GSAT0212 (PRN E03)      
1 41860U 16069B   22138.09129134  .00000072  00000+0  00000+0 0  9993
2 41860  54.8049 142.4222 0004283 307.1523  52.8209  1.70473278 34233
GSAT0213 (PRN E04)      
1 41861U 16069C   22138.45673712  .00000069  00000+0  00000+0 0  9996
2 41861  54.8059 142.4173 0005574 275.1804  84.7659  1.70473213 34108
GSAT0214 (PRN E05)      
1 41862U 16069D   22133.32460213  .00000100  00000+0  00000+0 0  9994
2 41862  54.8024 142.5542 0004640 278.2363  81.7582  1.70473318 34141
GSAT0215 (PRN E21)      
1 43055U 17079A   22137.92137227 -.00000014  00000+0  00000+0 0  9993
2 43055  55.7641 262.5647 0001475 280.5096  79.4583  1.70474511 27562
GSAT0216 (PRN E25)      
1 43056U 17079B   22138.21361875 -.00000014  00000+0  00000+0 0  9995
2 43056  55.7644 262.5563 0003208 281.2257  78.7244  1.70474666 27585
GSAT0217 (PRN E27)      
1 43057U 17079C   22138.43385319 -.00000014  00000+0  00000+0 0  9999
2 43057  55.7622 262.5503 0002870 300.2067  59.7523  1.70474568 27570
GSAT0218 (PRN E31)      
1 43058U 17079D   22137.48069698 -.00000014  00000+0  00000+0 0  9993
2 43058  55.7630 262.5737 0003623 275.9855  83.9551  1.70474553 27584
GSAT0221 (PRN E15)      
1 43564U 18060A   22136.20606541 -.00000079  00000+0  00000+0 0  9990
2 43564  57.1621  22.0573 0002985 310.6620  49.3618  1.70475365 23719
GSAT0222 (PRN E33)      
1 43565U 18060B   22134.66616144 -.00000077  00000+0  00000+0 0  9997
2 43565  57.1642  22.0995 0003104 323.5442  36.4813  1.70475338 23736
GSAT0219 (PRN E36)      
1 43566U 18060C   22137.23307469 -.00000081  00000+0  00000+0 0  9996
2 43566  57.1652  22.0317 0002648 330.4509  29.5845  1.70475324 23754
GSAT0220 (PRN E13)      
1 43567U 18060D   22138.03974788 -.00000084  00000+0  00000+0 0  9993
2 43567  57.1654  22.0102 0002580 323.5666  36.4657  1.70475001 23751
GSAT0223                
1 49809U 21116A   22132.32642785 -.00000078  00000+0  00000+0 0  9992
2 49809  57.1557  22.0645 0000714 102.4898  81.1402  1.70475473  2663
GSAT0224                
1 49810U 21116B   22138.00352708 -.00000084  00000+0  00000+0 0  9995
2 49810  57.1590  21.9077 0001395  77.0818 103.1843  1.70475115  2784
